SHIJIAN-17 (SJ-17)      
1 41838U 16065A   26190.82273365  .00000110  00000+0  00000+0 0  9996
2 41838   5.8072  72.3301 0001887  46.2716 307.5005  0.99863387 35421
GOES 16                 
1 41866U 16071A   26190.61939271 -.00000078  00000+0  00000+0 0  9990
2 41866   0.3887  85.5442 0000536  91.0093 229.2970  1.00271434 35323
TIANLIAN 1-04           
1 41869U 16072A   26190.81765176  .00000042  00000+0  00000+0 0  9997
2 41869   0.9252  82.7792 0043814  90.0854 226.0454  1.00270255 35529
WGS F8 (USA 272)        
1 41879U 16075A   26190.59836301  .00000000  00000+0  00000+0 0  9999
2 41879   0.0495  65.0312 0000165 245.6925 342.0692  1.00267225 35044
FENGYUN 4A              
1 41882U 16077A   26190.87850483 -.00000347  00000+0  00000+0 0  9998
2 41882   2.3764  80.0393 0008366 158.4443 129.3714  1.00271335 35155
ECHOSTAR 19             
1 41893U 16079A   26190.66151067 -.00000126  00000+0  00000+0 0  9996
2 41893   0.0193  38.5789 0001211  71.3496 318.7131  1.00270021 34920
JCSAT-110A (JCSAT-15)   
1 41903U 16082A   26190.73239147 -.00000338  00000+0  00000+0 0  9991
2 41903   0.0181  27.6709 0000507 114.2853 159.4386  1.00270393 34981
STAR ONE D1             
1 41904U 16082B   26190.55221564  .00000000  00000+0  00000+0 0  9991
2 41904   0.0295  54.1592 0002300  72.4610 275.7016  1.00267234 34995
TJS-2                   
1 41911U 17001A   26190.79589830  .00000005  00000+0  00000+0 0  9995
2 41911   0.8884  85.0311 0000760 105.0861  90.6924  1.00269717 34941
SBIRS GEO-4 (USA 273)   
1 41937U 17004A   26190.78698882  .00000137  00000+0  00000+0 0  9999
2 41937   2.2845  43.8394 0002588  65.7388 122.9066  1.00283949 34827
HISPASAT 36W-1          
1 41942U 17006A   26190.77556029 -.00000232  00000+0  00000+0 0  9999
2 41942   0.0118 288.8731 0001093 182.0150  60.0315  1.00271700 34470
TELKOM 3S               
1 41944U 17007A   26190.66354130 -.00000350  00000+0  00000+0 0  9990
2 41944   0.0039 117.1316 0002130 356.2894 171.0360  1.00268654 34365
INTELSAT 32E (IS-32E)   
1 41945U 17007B   26190.77417361  .00000000  00000+0  00000+0 0  9990
2 41945   0.0256  30.2371 0000363 226.8809 266.1101  1.00267675 34458
ECHOSTAR 23             
1 42070U 17014A   26190.65229306 -.00000044  00000+0  00000+0 0  9994
2 42070   0.0025  97.9497 0001968  10.8992 303.6656  1.00270264 34143
WGS F9 (USA 275)        
1 42075U 17016A   26190.63776612  .00000000  00000+0  00000+0 0  9997
2 42075   0.0202   7.6333 0000357 213.5835 283.9561  1.00269933 34125
SES-10                  
1 42432U 17017A   26189.55754756 -.00000258  00000+0  00000+0 0  9995
2 42432   0.0182  44.2893 0002617  67.0918 308.9449  1.00270497 33963
CHINASAT 16 (SJ-13)     
1 42662U 17018A   26190.87590480 -.00000340  00000+0  00000+0 0  9992
2 42662   0.0908  89.0151 0004786 133.6343 131.0239  1.00270122 33977
KOREASAT 7              
1 42691U 17023A   26190.66310795 -.00000349  00000+0  00000+0 0  9995
2 42691   0.0207  19.2305 0000719 116.4861 146.4656  1.00270239 33593
SGDC                    
1 42692U 17023B   26189.41252458  .00000000  00000+0  00000+0 0  9991
2 42692   0.0275  28.5713 0002393  87.7965 243.6568  1.00269305 33628
GSAT-9                  
1 42695U 17024A   26190.85580684 -.00000274  00000+0  00000+0 0  9994
2 42695   0.0739  91.9379 0002271  26.7200 214.5279  1.00269761 33529
INMARSAT 5-F4           
1 42698U 17025A   26189.84767019  .00000000  00000+0  00000+0 0  9990
2 42698   0.0260  36.7187 0000560 195.5889  56.1650  1.00273271 33492
SES-15                  
1 42709U 17026A   26190.28015922  .00000073  00000+0  00000+0 0  9993
2 42709   0.0249 323.7034 0000932 189.4272 105.7907  1.00272478  7656
QZS-2 (MICHIBIKI-2)     
1 42738U 17028A   26189.46758700 -.00000096  00000+0  00000+0 0  9999
2 42738  39.3957 242.8399 0758144 269.5205  84.7029  1.00278468  7842
VIASAT-2                
1 42740U 17029A   26190.84015372 -.00000253  00000+0  00000+0 0  9993
2 42740   0.0213 298.5729 0000122 276.8154 304.9639  1.00270300 33435
EUTELSAT 172B           
1 42741U 17029B   26190.81678507  .00000007  00000+0  00000+0 0  9992
2 42741   0.0305 126.8784 0000103  94.7125 172.2063  1.00271844 33965
GSAT-19                 
1 42747U 17031A   26190.79216002  .00000137  00000+0  00000+0 0  9990
2 42747   0.0247  85.9760 0006357 359.4255 175.3874  1.00272559 33370
ECHOSTAR 21             
1 42749U 17032A   26190.78473546  .00000078  00000+0  00000+0 0  9994
2 42749   1.7701 357.1316 0002075 105.4830 117.8630  1.00271937 33322
BULGARIASAT-1           
1 42801U 17038A   26190.78308881  .00000024  00000+0  00000+0 0  9999
2 42801   0.0128 308.3267 0003162 165.6758  97.5228  1.00272878 33078
HELLAS-SAT 3            
1 42814U 17040A   26190.79042669  .00000165  00000+0  00000+0 0  9992
2 42814   0.0390  35.7890 0003372  37.6444 177.8557  1.00268680 33038
GSAT-17                 
1 42815U 17040B   26190.85580684 -.00000246  00000+0  00000+0 0  9995
2 42815   0.0581  88.7359 0002045 168.9567  71.6735  1.00272143 33015
INTELSAT 35E (IS-35E)   
1 42818U 17041A   26190.77590696  .00000000  00000+0  00000+0 0  9991
2 42818   0.0274  37.5728 0001573  72.9126  62.0634  1.00269454 33045
COSMOS 2520             
1 42907U 17046A   26190.79164002  .00000149  00000+0  00000+0 0  9999
2 42907   0.0349 105.3541 0000468  10.7821 141.5702  1.00271534 32622
