OBJECT_NAME,OBJECT_ID,EPOCH,MEAN_MOTION,ECCENTRICITY,INCLINATION,RA_OF_ASC_NODE,ARG_OF_PERICENTER,MEAN_ANOMALY,EPHEMERIS_TYPE,CLASSIFICATION_TYPE,NORAD_CAT_ID,ELEMENT_SET_NO,REV_AT_EPOCH,BSTAR,MEAN_MOTION_DOT,MEAN_MOTION_DDOT
SHIJIAN-17 (SJ-17),2016-065A,2026-07-09T19:44:44.187360,0.99863387,.0001887,5.8072,72.3301,46.2716,307.5005,0,U,41838,999,3542,0,.11E-5,0
GOES 16,2016-071A,2026-07-09T14:51:55.530144,1.00271434,.0000536,0.3887,85.5442,91.0093,229.2970,0,U,41866,999,3532,0,-.78E-6,0
TIANLIAN 1-04,2016-072A,2026-07-09T19:37:25.112064,1.00270255,.0043814,0.9252,82.7792,90.0854,226.0454,0,U,41869,999,3552,0,.42E-6,0
WGS F8 (USA 272),2016-075A,2026-07-09T14:21:38.564064,1.00267225,.0000165,0.0495,65.0312,245.6925,342.0692,0,U,41879,999,3504,0,0,0
FENGYUN 4A,2016-077A,2026-07-09T21:05:02.817312,1.00271335,.0008366,2.3764,80.0393,158.4443,129.3714,0,U,41882,999,3515,0,-.347E-5,0
ECHOSTAR 19,2016-079A,2026-07-09T15:52:34.521888,1.00270021,.0001211,0.0193,38.5789,71.3496,318.7131,0,U,41893,999,3492,0,-.126E-5,0
JCSAT-110A (JCSAT-15),2016-082A,2026-07-09T17:34:38.623008,1.00270393,.0000507,0.0181,27.6709,114.2853,159.4386,0,U,41903,999,3498,0,-.338E-5,0
STAR ONE D1,2016-082B,2026-07-09T13:15:11.431296,1.00267234,.00023,0.0295,54.1592,72.4610,275.7016,0,U,41904,999,3499,0,0,0
TJS-2,2017-001A,2026-07-09T19:06:05.613120,1.00269717,.000076,0.8884,85.0311,105.0861,90.6924,0,U,41911,999,3494,0,.5E-7,0
SBIRS GEO-4 (USA 273),2017-004A,2026-07-09T18:53:15.834048,1.00283949,.0002588,2.2845,43.8394,65.7388,122.9066,0,U,41937,999,3482,0,.137E-5,0
HISPASAT 36W-1,2017-006A,2026-07-09T18:36:48.409056,1.00271700,.0001093,0.0118,288.8731,182.0150,60.0315,0,U,41942,999,3447,0,-.232E-5,0
TELKOM 3S,2017-007A,2026-07-09T15:55:29.968320,1.00268654,.000213,0.0039,117.1316,356.2894,171.0360,0,U,41944,999,3436,0,-.35E-5,0
INTELSAT 32E (IS-32E),2017-007B,2026-07-09T18:34:48.599904,1.00267675,.0000363,0.0256,30.2371,226.8809,266.1101,0,U,41945,999,3445,0,0,0
ECHOSTAR 23,2017-014A,2026-07-09T15:39:18.120384,1.00270264,.0001968,0.0025,97.9497,10.8992,303.6656,0,U,42070,999,3414,0,-.44E-6,0
WGS F9 (USA 275),2017-016A,2026-07-09T15:18:22.992768,1.00269933,.0000357,0.0202,7.6333,213.5835,283.9561,0,U,42075,999,3412,0,0,0
SES-10,2017-017A,2026-07-08T13:22:52.109184,1.00270497,.00026173,0.0182,44.2893,67.0918,308.9449,0,U,42432,999,3396,0,-.258E-5,0
CHINASAT 16 (SJ-13),2017-018A,2026-07-09T21:01:18.174720,1.00270122,.0004786,0.0908,89.0151,133.6343,131.0239,0,U,42662,999,3397,0,-.34E-5,0
KOREASAT 7,2017-023A,2026-07-09T15:54:52.526880,1.00270239,.0000719,0.0207,19.2305,116.4861,146.4656,0,U,42691,999,3359,0,-.349E-5,0
SGDC,2017-023B,2026-07-08T09:54:02.123712,1.00269305,.00023931,0.0275,28.5713,87.7965,243.6568,0,U,42692,999,3362,0,0,0
GSAT-9,2017-024A,2026-07-09T20:32:21.710976,1.00269761,.0002271,0.0739,91.9379,26.7200,214.5279,0,U,42695,999,3352,0,-.274E-5,0
INMARSAT 5-F4,2017-025A,2026-07-08T20:20:38.704416,1.00273271,.00005608,0.0260,36.7187,195.5889,56.1650,0,U,42698,999,3349,0,0,0
SES-15,2017-026A,2026-07-09T06:43:25.756608,1.00272478,.00009327,0.0249,323.7034,189.4272,105.7907,0,U,42709,999,765,0,.73E-6,0
QZS-2 (MICHIBIKI-2),2017-028A,2026-07-08T11:13:19.516800,1.00278468,.07581442,39.3957,242.8399,269.5205,84.7029,0,U,42738,999,784,0,-.96E-6,0
VIASAT-2,2017-029A,2026-07-09T20:09:49.281408,1.00270300,.0000122,0.0213,298.5729,276.8154,304.9639,0,U,42740,999,3343,0,-.253E-5,0
EUTELSAT 172B,2017-029B,2026-07-09T19:36:10.230048,1.00271844,.0000103,0.0305,126.8784,94.7125,172.2063,0,U,42741,999,3396,0,.7E-7,0
GSAT-19,2017-031A,2026-07-09T19:00:42.625728,1.00272559,.0006357,0.0247,85.9760,359.4255,175.3874,0,U,42747,999,3337,0,.137E-5,0
ECHOSTAR 21,2017-032A,2026-07-09T18:50:01.143744,1.00271937,.0002075,1.7701,357.1316,105.4830,117.8630,0,U,42749,999,3332,0,.78E-6,0
BULGARIASAT-1,2017-038A,2026-07-09T18:47:38.873184,1.00272878,.0003162,0.0128,308.3267,165.6758,97.5228,0,U,42801,999,3307,0,.24E-6,0
HELLAS-SAT 3,2017-040A,2026-07-09T18:58:12.866016,1.00268680,.0003372,0.0390,35.7890,37.6444,177.8557,0,U,42814,999,3303,0,.165E-5,0
GSAT-17,2017-040B,2026-07-09T20:32:21.710976,1.00272143,.0002045,0.0581,88.7359,168.9567,71.6735,0,U,42815,999,3301,0,-.246E-5,0
INTELSAT 35E (IS-35E),2017-041A,2026-07-09T18:37:18.361344,1.00269454,.0001573,0.0274,37.5728,72.9126,62.0634,0,U,42818,999,3304,0,0,0
COSMOS 2520,2017-046A,2026-07-09T18:59:57.697728,1.00271534,.0000468,0.0349,105.3541,10.7821,141.5702,0,U,42907,999,3262,0,.149E-5,0
